[{"OBJECT_NAME":"ORBITER SN3","OBJECT_ID":"2023-084AE","EPOCH":"2026-03-09T23:12:21.976128","MEAN_MOTION":15.32943891,"ECCENTRICITY":0.00075889,"INCLINATION":97.61,"RA_OF_ASC_NODE":206.6768,"ARG_OF_PERICENTER":331.7947,"MEAN_ANOMALY":28.2883,"EPHEMERIS_TYPE":0,"CLASSIFICATION_TYPE":"U","NORAD_CAT_ID":56960,"ELEMENT_SET_NO":999,"REV_AT_EPOCH":15228,"BSTAR":0.00032835432,"MEAN_MOTION_DOT":0.00010378,"MEAN_MOTION_DDOT":0},{"OBJECT_NAME":"STARLINK-35205","OBJECT_ID":"2025-212D","EPOCH":"2026-03-09T23:20:07.234080","MEAN_MOTION":15.30173975,"ECCENTRICITY":0.00015403,"INCLINATION":53.1608,"RA_OF_ASC_NODE":344.588,"ARG_OF_PERICENTER":151.428,"MEAN_ANOMALY":208.6806,"EPHEMERIS_TYPE":0,"CLASSIFICATION_TYPE":"U","NORAD_CAT_ID":65679,"ELEMENT_SET_NO":999,"REV_AT_EPOCH":2723,"BSTAR":0.001059404,"MEAN_MOTION_DOT":0.00031124,"MEAN_MOTION_DDOT":0}]
